{
  "type": "FeatureCollection",
  "generator": "overpass-turbo",
  "copyright": "The data included in this document is from www.openstreetmap.org. The data is made available under ODbL.",
  "timestamp": "2025-10-19T12:24:14Z",
  "features": [
    {
      "type": "Feature",
      "properties": {
        "@id": "relation/3606825",
        "addr:city": "New York",
        "addr:housenumber": "170",
        "addr:postcode": "10024",
        "addr:state": "NY",
        "addr:street": "Central Park West",
        "building": "yes",
        "check_date:opening_hours": "2024-09-06",
        "ele": "27",
        "fee": "yes",
        "fee:conditional": "no @ age < 5",
        "gnis:feature_id": "958473",
        "height": "35.8",
        "name": "New-York Historical Society",
        "nycdoitt:bin": "1028816",
        "opening_hours": "Tu-Su 11:00-17:00; Fr 11:00-20:00",
        "phone": "1 (212) 873-3400",
        "tourism": "museum",
        "type": "multipolygon",
        "website": "https://www.nyhistory.org/",
        "wheelchair": "yes",
        "wikidata": "Q1059456",
        "wikipedia": "en:New-York Historical Society",
        "@geometry": "center"
      },
      "geometry": {
        "type": "Point",
        "coordinates": [
          -73.974265,
          40.779286
        ]
      },
      "id": "relation/3606825"
    },
    {
      "type": "Feature",
      "properties": {
        "@id": "relation/3698894",
        "addr:city": "New York",
        "addr:housenumber": "1000",
        "addr:state": "NY",
        "addr:street": "5th Avenue",
        "building": "museum",
        "building:colour": "beige",
        "check_date": "2023-01-16",
        "ele": "28",
        "fee": "yes",
        "fee:conditional": "no @( age < 12)",
        "gnis:feature_id": "957042",
        "height": "26.8",
        "internet_access": "wlan",
        "internet_access:fee": "no",
        "internet_access:ssid": "MetMuseumFreeWiFi",
        "museum": "art",
        "name": "The Metropolitan Museum of Art",
        "name:en": "The Metropolitan Museum of Art",
        "name:he": "מוזיאון המטרופוליטן לאמנות",
        "name:hi": "कला का महानगरीय संग्रहालय",
        "name:ru": "Метрополитан Музей Искусства",
        "nycdoitt:bin": "1083810",
        "opening_hours": "10:00-17:00; Fr-Sa 10:00-21:00; We off; May Mo[1] off; Nov Th[4] off; Dec 25 off; Jan 01 off",
        "phone": "+1 212-535-7710",
        "ref:nrhp": "86003556",
        "short_name": "The Met",
        "source": "bing",
        "tourism": "museum",
        "type": "multipolygon",
        "website": "https://www.metmuseum.org/",
        "wheelchair": "yes",
        "wikidata": "Q160236",
        "wikipedia": "en:Metropolitan Museum of Art",
        "@geometry": "center"
      },
      "geometry": {
        "type": "Point",
        "coordinates": [
          -73.9634178,
          40.7793968
        ]
      },
      "id": "relation/3698894"
    },
    {
      "type": "Feature",
      "properties": {
        "@id": "relation/7281773",
        "check_date:opening_hours": "2024-09-08",
        "fee:conditional": "no @ age < 13; no @ Th 16:00-20:00",
        "name": "Museum of Jewish Heritage",
        "name:de": "Jüdisches Museum",
        "opening_hours": "We-Su 10:00-17:00; Th 10:00-20:00; Sa off",
        "start_date": "1997",
        "tourism": "museum",
        "type": "multipolygon",
        "website": "https://mjhnyc.org/",
        "wheelchair": "yes",
        "wikidata": "Q839985",
        "wikipedia": "en:Museum of Jewish Heritage",
        "@geometry": "center"
      },
      "geometry": {
        "type": "Point",
        "coordinates": [
          -74.0186031,
          40.7060437
        ]
      },
      "id": "relation/7281773"
    },
    {
      "type": "Feature",
      "properties": {
        "@id": "way/95161971",
        "addr:city": "New York",
        "addr:postcode": "10004",
        "addr:state": "NJ",
        "alt_name": "Ellis Island National Museum of Immigration",
        "building": "yes",
        "building:levels": "3",
        "check_date": "2024-09-13",
        "ele": "2",
        "fee": "no",
        "gnis:feature_id": "2368022",
        "historic": "building",
        "name": "Ellis Island Immigration Museum",
        "name:es": "Museo Nacional de Inmigración de la Isla Ellis",
        "name:fr": "Musée de l'immigration d'Ellis Island",
        "phone": "+1-212-363-3200",
        "source": "bing;USGS Geonames",
        "tourism": "museum",
        "website": "https://www.nps.gov/elis/index.htm",
        "wikidata": "Q102312434",
        "@geometry": "center"
      },
      "geometry": {
        "type": "Point",
        "coordinates": [
          -74.0395257,
          40.6991123
        ]
      },
      "id": "way/95161971"
    },
    {
      "type": "Feature",
      "properties": {
        "@id": "way/109269297",
        "addr:city": "New York",
        "addr:housenumber": "2",
        "addr:state": "NY",
        "addr:street": "Columbus Circle",
        "building": "yes",
        "building:material": "concrete",
        "building:part": "yes",
        "check_date:opening_hours": "2024-09-06",
        "email": "info@madmuseum.org",
        "fee": "yes",
        "fee:conditional": "no @ age < 13",
        "gnis:feature_id": "2083274",
        "height": "45",
        "name": "Museum of Arts and Design",
        "nycdoitt:bin": "1024910",
        "opening_hours": "Tu-Su 10:00-18:00; Oct 14 off",
        "phone": "+1 212-299-7777",
        "roof:material": "concrete",
        "roof:shape": "flat",
        "short_name": "MAD",
        "tourism": "museum",
        "website": "https://www.madmuseum.org/",
        "wheelchair": "yes",
        "wikidata": "Q6940773",
        "wikipedia": "en:Museum of Arts and Design",
        "@geometry": "center"
      },
      "geometry": {
        "type": "Point",
        "coordinates": [
          -73.9820053,
          40.7673824
        ]
      },
      "id": "way/109269297"
    },
    {
      "type": "Feature",
      "properties": {
        "@id": "way/162755458",
        "addr:city": "New York",
        "addr:housenumber": "25",
        "addr:postcode": "10019",
        "addr:state": "NY",
        "addr:street": "West 52nd Street",
        "building": "yes",
        "building:part": "yes",
        "check_date:opening_hours": "2024-09-05",
        "ele": "21",
        "fee": "yes",
        "fee:conditional": "no @ age < 12",
        "gnis:feature_id": "2083273",
        "height": "30",
        "name": "Paley Center for Media",
        "nycdoitt:bin": "1076265",
        "opening_hours": "We-Su 12:00-18:00; Jan 01 off; Jul 04 off; Nov Th[4] off; Dec 25 off",
        "start_date": "1990",
        "tourism": "museum",
        "website": "https://www.paleycenter.org/",
        "wheelchair": "yes",
        "wikidata": "Q7127465",
        "wikipedia": "en:Paley Center for Media",
        "@geometry": "center"
      },
      "geometry": {
        "type": "Point",
        "coordinates": [
          -73.9775846,
          40.760591
        ]
      },
      "id": "way/162755458"
    },
    {
      "type": "Feature",
      "properties": {
        "@id": "way/170149134",
        "addr:city": "New York",
        "addr:housenumber": "1071",
        "addr:postcode": "10128",
        "addr:state": "NY",
        "addr:street": "5th Avenue",
        "building": "museum",
        "building:levels": "6",
        "check_date:opening_hours": "2024-09-05",
        "contact:phone": "+1 212-423-3500",
        "description": "Hint: Saturdays 18:00-20:00 Pay-What-You-Wish Admission",
        "ele": "33",
        "fee": "yes",
        "fee:conditional": "no @ age < 12",
        "heritage": "1",
        "museum": "art",
        "name": "Guggenheim Museum",
        "name:da": "Guggenheim Museum",
        "name:es": "Museo Guggenheim",
        "name:he": "מוזיאון סולומון ר. גוגנהיים",
        "name:ko": "구겐하임 미술관",
        "name:lt": "Gugenheimo muziejus",
        "name:pl": "Muzeum Guggenheima w Nowym Jorku",
        "name:ru": "Музей Соломона Гуггенхайма",
        "name:uk": "Музей Соломона Гуггенгайма",
        "name:zh": "古根漢博物館",
        "official_name": "Solomon R. Guggenheim Museum",
        "opening_hours": "Mo-Su 10:30-17:30; Nov Th[4] off; Dec 24 10:30-16:00; Dec 25 off",
        "ref:nrhp": "05000443",
        "ref:whc": "1496rev",
        "tourism": "museum",
        "website": "https://www.guggenheim.org/new-york",
        "wheelchair": "yes",
        "wikidata": "Q201469",
        "wikipedia": "en:Solomon R. Guggenheim Museum",
        "@geometry": "center"
      },
      "geometry": {
        "type": "Point",
        "coordinates": [
          -73.9588842,
          40.7829919
        ]
      },
      "id": "way/170149134"
    },
    {
      "type": "Feature",
      "properties": {
        "@id": "way/241833272",
        "addr:housenumber": "222",
        "addr:postcode": "10003",
        "addr:street": "East 6th Street",
        "building": "yes",
        "fee": "yes",
        "height": "13.0",
        "name": "The Ukrainian Museum",
        "nycdoitt:bin": "1006616",
        "opening_hours": "We-Su 12:00-18:00",
        "opening_hours:url": "https://www.theukrainianmuseum.org/visit/",
        "phone": "+1 212 228 0110",
        "tourism": "museum",
        "website": "https://www.theukrainianmuseum.org/",
        "wheelchair": "yes",
        "wikidata": "Q4470591",
        "wikipedia": "en:Ukrainian Museum",
        "@geometry": "center"
      },
      "geometry": {
        "type": "Point",
        "coordinates": [
          -73.9897653,
          40.7276617
        ]
      },
      "id": "way/241833272"
    },
    {
      "type": "Feature",
      "properties": {
        "@id": "way/247838607",
        "addr:city": "New York",
        "addr:housenumber": "29",
        "addr:postcode": "10003",
        "addr:street": "East 4th Street",
        "building": "yes",
        "check_date:opening_hours": "2023-04-05",
        "fee": "yes",
        "height": "19.1",
        "name": "Merchant's House Museum",
        "nycdoitt:bin": "1008785",
        "opening_hours": "Sep-May Th-Su 13:00-17:00; Jun-Aug We-Su 13:00-17:00; PH off",
        "tourism": "museum",
        "website": "https://merchantshouse.org/",
        "wheelchair": "no",
        "wikidata": "Q3306353",
        "wikipedia": "en:Merchant's House Museum",
        "@geometry": "center"
      },
      "geometry": {
        "type": "Point",
        "coordinates": [
          -73.9923438,
          40.7276576
        ]
      },
      "id": "way/247838607"
    },
    {
      "type": "Feature",
      "properties": {
        "@id": "way/247920493",
        "addr:housenumber": "235",
        "addr:postcode": "10002",
        "addr:street": "Bowery",
        "alt_name": "New Museum of Contemporary Art",
        "building": "yes",
        "check_date:opening_hours": "2024-09-06",
        "height": "48.4",
        "museum": "art",
        "name": "New Museum",
        "name:es": "Nuevo Museo",
        "nycdoitt:bin": "1005709",
        "opening_hours": "closed",
        "phone": "+1-212-219-1222",
        "tourism": "museum",
        "website": "https://www.newmuseum.org/",
        "wikidata": "Q1156823",
        "wikipedia": "en:New Museum",
        "@geometry": "center"
      },
      "geometry": {
        "type": "Point",
        "coordinates": [
          -73.9928349,
          40.722347
        ]
      },
      "id": "way/247920493"
    },
    {
      "type": "Feature",
      "properties": {
        "@id": "way/249664327",
        "addr:city": "New York",
        "addr:housenumber": "35",
        "addr:postcode": "10013",
        "addr:street": "Wooster Street",
        "building": "yes",
        "check_date": "2025-02-05",
        "fee": "no",
        "height": "23.3",
        "name": "The Drawing Center",
        "nycdoitt:bin": "1007088",
        "opening_hours": "We-Su 12:00-18:00",
        "phone": "+1-212-219-2166",
        "tourism": "museum",
        "website": "https://drawingcenter.org",
        "wheelchair": "no",
        "wikidata": "Q3039170",
        "@geometry": "center"
      },
      "geometry": {
        "type": "Point",
        "coordinates": [
          -74.0028908,
          40.7224437
        ]
      },
      "id": "way/249664327"
    },
    {
      "type": "Feature",
      "properties": {
        "@id": "way/249664614",
        "addr:city": "New York",
        "addr:housenumber": "278",
        "addr:postcode": "10013",
        "addr:state": "NY",
        "addr:street": "Spring Street",
        "alt_name": "Museo de los Bomberos",
        "building": "yes",
        "ele": "5",
        "gnis:feature_id": "2082957",
        "height": "18.9",
        "museum": "local",
        "name": "New York City Fire Museum",
        "nycdoitt:bin": "1009739",
        "opening_hours": "24/7 off \"Temporarily closed until further notice\"",
        "tourism": "museum",
        "website": "https://www.nycfiremuseum.org/",
        "wheelchair": "yes",
        "wikidata": "Q510422",
        "wikipedia": "en:New York City Fire Museum",
        "@geometry": "center"
      },
      "geometry": {
        "type": "Point",
        "coordinates": [
          -74.0069355,
          40.7255756
        ]
      },
      "id": "way/249664614"
    },
    {
      "type": "Feature",
      "properties": {
        "@id": "way/250267911",
        "addr:housenumber": "12",
        "addr:postcode": "10002",
        "addr:street": "Eldridge Street",
        "building": "yes",
        "check_date": "2024-09-08",
        "ele": "13",
        "fee": "yes",
        "fee:conditional": "no @ (age < 5); no @ disabled; no @ military; donation @ Mo, Fr",
        "gnis:feature_id": "2080612",
        "height": "21.3",
        "name": "Museum at Eldridge Street",
        "nycdoitt:bin": "1003778",
        "old_name": "Eldridge Street Synagogue",
        "old_name:es": "Sinagoga Calle Eldridge",
        "opening_hours": "Mo-Su 10:00-17:00; Sa off; Dec 31-Jan 01 off; Nov Th[4] off; Nov Fr[4] off",
        "opening_hours:url": "https://www.eldridgestreet.org/visit",
        "ref:nrhp": "80002687",
        "religion": "jewish",
        "start_date": "1887",
        "tourism": "museum",
        "website": "https://www.eldridgestreet.org/",
        "wheelchair": "yes",
        "wikidata": "Q1113721",
        "wikipedia": "en:Eldridge Street Synagogue",
        "@geometry": "center"
      },
      "geometry": {
        "type": "Point",
        "coordinates": [
          -73.993461,
          40.7147291
        ]
      },
      "id": "way/250267911"
    },
    {
      "type": "Feature",
      "properties": {
        "@id": "way/265357846",
        "addr:city": "New York",
        "addr:housenumber": "86",
        "addr:postcode": "10036",
        "addr:state": "NY",
        "addr:street": "West 46th Street",
        "air_conditioning": "yes",
        "alt_name": "Intrepid Sea, Air & Space Museum",
        "building": "yes",
        "building:colour": "#DBDFC6",
        "building:levels": "2",
        "check_date": "2022-08-20",
        "check_date:opening_hours": "2024-09-06",
        "description": "Museum of Marine, Aircraft and Space",
        "fee": "yes",
        "fee:conditional": "no @ age < 5",
        "height": "11.5",
        "internet_access": "wlan",
        "internet_access:fee": "no",
        "name": "Intrepid Museum",
        "name:es": "Museo Intrepid-Spacemuseum",
        "nycdoitt:bin": "1089013",
        "official_name": "Intrepid Sea, Air & Space Museum",
        "opening_hours": "Apr 01-Sep 30 Mo-Fr 10:00-17:00; Apr 01-Sep 30 Sa,Su, PH 10:00-18:00; Oct 01-Mar 31 10:00-17:00; Nov Th[4] off; Dec 25 off",
        "payment:mastercard": "yes",
        "payment:visa": "yes",
        "roof:colour": "#3C4E50",
        "roof:shape": "flat",
        "start_date": "1982",
        "tourism": "museum",
        "website": "https://www.intrepidmuseum.org/",
        "wheelchair": "yes",
        "wikidata": "Q952270",
        "wikipedia": "en:Intrepid Museum",
        "@geometry": "center"
      },
      "geometry": {
        "type": "Point",
        "coordinates": [
          -73.9995256,
          40.7645198
        ]
      },
      "id": "way/265357846"
    },
    {
      "type": "Feature",
      "properties": {
        "@id": "way/266199252",
        "addr:city": "New York",
        "addr:housenumber": "421",
        "addr:postcode": "10065",
        "addr:state": "NY",
        "addr:street": "East 61st Street",
        "building": "yes",
        "ele": "10",
        "fee": "yes",
        "fee:conditional": "no @ age < 12",
        "gnis:feature_id": "2083580",
        "name": "Mount Vernon Hotel Museum",
        "nycdoitt:bin": "1045284",
        "old_name": "Abigail Adams Smith Museum",
        "opening_hours:url": "https://mvhm.org/visit/",
        "ref:nrhp": "73001223",
        "start_date": "1799",
        "tourism": "museum",
        "website": "https://mvhm.org/",
        "wheelchair": "no",
        "wikidata": "Q6924383",
        "wikipedia": "en:Mount Vernon Hotel Museum",
        "@geometry": "center"
      },
      "geometry": {
        "type": "Point",
        "coordinates": [
          -73.9597128,
          40.7605217
        ]
      },
      "id": "way/266199252"
    },
    {
      "type": "Feature",
      "properties": {
        "@id": "way/266887857",
        "addr:city": "New York",
        "addr:country": "US",
        "addr:housenumber": "725",
        "addr:postcode": "10021",
        "addr:state": "NY",
        "addr:street": "Park Avenue",
        "building": "yes",
        "check_date:opening_hours": "2024-09-05",
        "ele": "23",
        "fee": "yes",
        "fee:conditional": "no @ age < 17",
        "gnis:feature_id": "2083526",
        "height": "36.0",
        "name": "Asia Society",
        "nycdoitt:bin": "1042714",
        "opening_hours": "Tu-Su 11:00-18:00; Jul 03, Nov 27, Dec 24, Dec 31 11:00-14:00; Jan 01 off; Nov 05 off; Nov Th[4] off; Dec 25 off",
        "tourism": "museum",
        "website": "https://asiasociety.org/new-york",
        "wheelchair": "yes",
        "wikidata": "Q842828",
        "wikipedia": "en:Asia Society",
        "@geometry": "center"
      },
      "geometry": {
        "type": "Point",
        "coordinates": [
          -73.9642913,
          40.7698384
        ]
      },
      "id": "way/266887857"
    },
    {
      "type": "Feature",
      "properties": {
        "@id": "way/266894185",
        "addr:city": "New York",
        "addr:housenumber": "1",
        "addr:postcode": "10021",
        "addr:state": "NY",
        "addr:street": "East 70th Street",
        "building": "yes",
        "check_date:opening_hours": "2024-09-05",
        "contact:phone": "(212) 288-0700",
        "contact:website": "http://www.frick.org/",
        "ele": "25",
        "email": "info@frick.org",
        "gnis:feature_id": "950726",
        "height": "16.0",
        "name": "Frick Collection",
        "name:es": "Colleción Frick",
        "nycdoitt:bin": "1081214",
        "opening_hours": "We-Th, Sa-Mo 11:00-18:00; Fr 10:30-21:00",
        "tourism": "museum",
        "wikidata": "Q682827",
        "wikipedia": "en:Frick Collection",
        "@geometry": "center"
      },
      "geometry": {
        "type": "Point",
        "coordinates": [
          -73.967146,
          40.7712772
        ]
      },
      "id": "way/266894185"
    },
    {
      "type": "Feature",
      "properties": {
        "@id": "way/266926168",
        "addr:city": "New York",
        "addr:housenumber": "2",
        "addr:state": "NY",
        "addr:street": "East 91st Street",
        "alt_name": "Cooper–Hewitt, National Design Museum",
        "building": "yes",
        "check_date": "2025-05-03",
        "check_date:opening_hours": "2024-09-05",
        "ele": "34",
        "fee": "yes",
        "fee:conditional": "no @ (age < 19)",
        "gnis:feature_id": "2083553",
        "height": "23.0",
        "historic": "building",
        "image": "http://en.wikipedia.org/wiki/File:Cooper-hewitt_90_jeh.JPG",
        "name": "Cooper–Hewitt, Smithsonian Design Museum",
        "name:en": "Cooper–Hewitt, Smithsonian Design Museum",
        "name:ru": "Смитсоновский музей дизайна Купер Хьюитт",
        "name:uk": "Національний музей дизайну Купер—Г'юїт",
        "nycdoitt:bin": "1046980",
        "old_name": "Andrew Carnegie Mansion",
        "opening_hours": "Sep 05-Nov 01 off; Mo-Su 10:00-18:00; Nov Th[4] off; Dec 25 off",
        "operator": "Smithsonian",
        "phone": "+1 212-849-8400",
        "tourism": "museum",
        "website": "https://www.cooperhewitt.org/",
        "wheelchair": "yes",
        "wikidata": "Q4756547",
        "wikipedia": "en:Andrew Carnegie Mansion",
        "@geometry": "center"
      },
      "geometry": {
        "type": "Point",
        "coordinates": [
          -73.9577609,
          40.7842886
        ]
      },
      "id": "way/266926168"
    },
    {
      "type": "Feature",
      "properties": {
        "@id": "way/266934250",
        "addr:city": "New York",
        "addr:housenumber": "15",
        "addr:postcode": "10028",
        "addr:state": "NY",
        "addr:street": "East 85th Street",
        "amenity": "library",
        "building": "yes",
        "building:levels": "6",
        "height": "29.8",
        "name": "Institute for the Study of the Ancient World",
        "nycdoitt:bin": "1046815",
        "operator": "The Leon Levy Foundation",
        "phone": "212-992-7800",
        "tourism": "museum",
        "website": "https://isaw.nyu.edu/",
        "wikidata": "Q6039808",
        "@geometry": "center"
      },
      "geometry": {
        "type": "Point",
        "coordinates": [
          -73.9602334,
          40.7799803
        ]
      },
      "id": "way/266934250"
    },
    {
      "type": "Feature",
      "properties": {
        "@id": "way/266934254",
        "addr:city": "New York",
        "addr:housenumber": "1048",
        "addr:postcode": "10028",
        "addr:state": "NY",
        "addr:street": "5th Avenue",
        "architect": "Carrère and Hastings",
        "architect:wikidata": "Q1045364",
        "architect:wikipedia": "en:Carrère and Hastings",
        "building": "yes",
        "building:architecture": "Louis XIII",
        "building:name": "William Starr Miller House",
        "building:start_date": "1914",
        "building:wikidata": "Q8018749",
        "building:wikipedia": "en:William Starr Miller House",
        "check_date:opening_hours": "2024-09-05",
        "ele": "29",
        "fee": "yes",
        "gnis:feature_id": "2083546",
        "height": "23.1",
        "museum": "art",
        "name": "Neue Galerie New York",
        "nycdoitt:bin": "1046843",
        "opening_hours": "Mo-Su 11:00-18:00; Tu off; Fr[1] 11:00-20:00",
        "tourism": "museum",
        "website": "https://www.neuegalerie.org/",
        "wheelchair": "yes",
        "wikidata": "Q59468",
        "wikipedia": "en:Neue Galerie New York",
        "@geometry": "center"
      },
      "geometry": {
        "type": "Point",
        "coordinates": [
          -73.9602374,
          40.7812191
        ]
      },
      "id": "way/266934254"
    },
    {
      "type": "Feature",
      "properties": {
        "@id": "way/266940107",
        "addr:city": "New York",
        "addr:housenumber": "1109",
        "addr:postcode": "10128",
        "addr:state": "NY",
        "addr:street": "5th Avenue",
        "architect": "C. P. H. Gilbert",
        "architect:wikidata": "Q1022552",
        "architect:wikipedia": "en:C. P. H. Gilbert",
        "building": "house",
        "building:architecture": "chateaueasque",
        "building:material": "limestone",
        "building:start_date": "1908",
        "building:use": "museum",
        "building:wikidata": "Q14706267",
        "building:wikipedia": "en:Felix M. Warburg House",
        "check_date:opening_hours": "2024-09-04",
        "ele": "31",
        "email": "info@thejm.org",
        "fee": "yes",
        "fee:conditional": "no @ age < 19; no @ Sa",
        "gnis:feature_id": "2083559",
        "height": "33.3",
        "heritage": "2;5",
        "heritage:operator": "nrhp;lpc",
        "heritage:website": "https://www1.nyc.gov/site/lpc/index.page",
        "lpc:inscription_date": "1981",
        "museum": "history;art",
        "museum:start_date": "1947",
        "name": "The Jewish Museum",
        "nrhp:criteria": "(C)",
        "nrhp:inscription_date": "1982-10-29",
        "nycdoitt:bin": "1047052",
        "old_name": "Felix Warburg Mansion",
        "opening_hours": "Th-Mo 11:00-16:00; Tu-We off; Oct 03-04, Oct 12, Nov 28 off; Oct 11 11:00-15:00; Apr 12 11:00-15:00",
        "operator:type": "private",
        "owner": "Jewish Theological Seminary of America",
        "phone": "+1-212-423-3200",
        "ref:lpc": "1116",
        "ref:nrhp": "82001207",
        "tourism": "museum",
        "website": "https://thejewishmuseum.org",
        "wheelchair": "yes",
        "wikidata": "Q592116",
        "wikipedia": "en:Jewish Museum (Manhattan)",
        "@geometry": "center"
      },
      "geometry": {
        "type": "Point",
        "coordinates": [
          -73.957186,
          40.7854051
        ]
      },
      "id": "way/266940107"
    },
    {
      "type": "Feature",
      "properties": {
        "@id": "way/270901657",
        "addr:city": "New York",
        "addr:country": "US",
        "addr:housenumber": "212",
        "addr:postcode": "10024",
        "addr:state": "NY",
        "addr:street": "West 83rd Street",
        "building": "yes",
        "check_date:opening_hours": "2024-09-06",
        "fee": "yes",
        "fee:conditional": "no @ age < 1",
        "height": "23.3",
        "name": "Children's Museum of Manhattan",
        "nycdoitt:bin": "1032767",
        "opening_hours": "Tu-Su 10:00-17:00",
        "tourism": "museum",
        "website": "https://www.cmom.org/",
        "wheelchair": "limited",
        "wheelchair:description": "The Museum is wheelchair accessible in all locations except the lower level of the Dynamic H2O exhibition.",
        "wikidata": "Q5098177",
        "@geometry": "center"
      },
      "geometry": {
        "type": "Point",
        "coordinates": [
          -73.9773343,
          40.7858798
        ]
      },
      "id": "way/270901657"
    },
    {
      "type": "Feature",
      "properties": {
        "@id": "way/271205008",
        "addr:housenumber": "319",
        "addr:postcode": "10025",
        "addr:street": "West 107th Street",
        "building": "yes",
        "fee": "donation",
        "height": "21.1",
        "name": "Nicholas Roerich Museum",
        "nycdoitt:bin": "1057276",
        "opening_hours": "Tu-Fr 12:00-16:00, Sa, Su 12:00-17:00, Dec 25 off, Nov Th[4] off, Jan 01 off, Jul 04 off",
        "tourism": "museum",
        "website": "https://www.roerich.org/",
        "wheelchair": "limited",
        "wikidata": "Q7026138",
        "@geometry": "center"
      },
      "geometry": {
        "type": "Point",
        "coordinates": [
          -73.9690037,
          40.802929
        ]
      },
      "id": "way/271205008"
    },
    {
      "type": "Feature",
      "properties": {
        "@id": "way/271220752",
        "addr:city": "New York",
        "addr:housenumber": "1220",
        "addr:postcode": "10029",
        "addr:state": "NY",
        "addr:street": "5th Avenue",
        "building": "yes",
        "check_date:opening_hours": "2024-09-04",
        "ele": "10",
        "fee": "yes",
        "fee:conditional": "no @ age < 19; no @ We; donation @ (local residents)",
        "gnis:feature_id": "2083575",
        "height": "29.1",
        "name": "Museum of the City of New York",
        "nycdoitt:bin": "1074157",
        "opening_hours": "Mo-Fr 10:00-17:00; Sa-Su 10:00-18:00; Jan 01, Nov Th[4], Dec 25 off",
        "tourism": "museum",
        "website": "https://www.mcny.org/",
        "wheelchair": "yes",
        "wikidata": "Q1321141",
        "wikipedia": "en:Museum of the City of New York",
        "@geometry": "center"
      },
      "geometry": {
        "type": "Point",
        "coordinates": [
          -73.9519079,
          40.792506
        ]
      },
      "id": "way/271220752"
    },
    {
      "type": "Feature",
      "properties": {
        "@id": "way/271274003",
        "addr:city": "New York",
        "addr:country": "US",
        "addr:housenumber": "1230",
        "addr:postcode": "10029",
        "addr:state": "NY",
        "addr:street": "5th Avenue",
        "building": "yes",
        "check_date:opening_hours": "2024-09-04",
        "ele": "8",
        "fee": "yes",
        "fee:conditional": "no @ age < 12",
        "gnis:feature_id": "2083576",
        "height": "38.0",
        "name": "El Museo Del Barrio",
        "nycdoitt:bin": "1051499",
        "opening_hours": "Th-Su 11:00-17:00; Sep 04-Oct 10 off; Jan 01, Jul 04, Nov Th[4], Dec 25 off",
        "tourism": "museum",
        "website": "https://elmuseo.org/",
        "wheelchair": "yes",
        "wikidata": "Q1061142",
        "wikipedia": "en:El Museo del Barrio",
        "@geometry": "center"
      },
      "geometry": {
        "type": "Point",
        "coordinates": [
          -73.9513946,
          40.7931062
        ]
      },
      "id": "way/271274003"
    },
    {
      "type": "Feature",
      "properties": {
        "@id": "way/271592477",
        "addr:housenumber": "443",
        "addr:postcode": "10029",
        "addr:state": "NY",
        "addr:street": "East 115th Street",
        "building": "yes",
        "ele": "3",
        "gnis:feature_id": "2091589",
        "height": "19.0",
        "name": "National Museum of Catholic Art and History",
        "nycdoitt:bin": "1081446",
        "source": "USGS Geonames",
        "tourism": "museum",
        "@geometry": "center"
      },
      "geometry": {
        "type": "Point",
        "coordinates": [
          -73.934369,
          40.7949253
        ]
      },
      "id": "way/271592477"
    },
    {
      "type": "Feature",
      "properties": {
        "@id": "way/271885447",
        "addr:city": "New York",
        "addr:housenumber": "414",
        "addr:postcode": "10031",
        "addr:state": "NY",
        "addr:street": "West 141st Street",
        "architect": "John McComb Jr.",
        "building": "yes",
        "description": "In 1801, Hamilton hired John McComb Jr. to design his country home in Harlem. Hamilton’s impact on society reaches far beyond New York City, but it was the backdrop to his many personal and professional developments.",
        "ele": "34",
        "fee": "no",
        "gnis:feature_id": "2083660",
        "height": "11.5",
        "heritage": "2",
        "heritage:operator": "nrhp",
        "heritage:website": "https://www.nps.gov/subjects/nationalregister/index.htm",
        "historic": "building",
        "museum": "history",
        "name": "Hamilton Grange National Memorial",
        "nrhp:criteria": "(A), (B), (C)",
        "nrhp:inscription_date": "1966-12-19",
        "nrhp:nhl": "yes",
        "nycdoitt:bin": "1089115",
        "opening_hours:url": "https://www.nps.gov/hagr/planyourvisit/hours.htm",
        "protection_title": "National Park Service",
        "ref:nrhp": "66000097",
        "source_ref": "http://npshistory.com/publications/hagr/nr-hamilton-grange-nmem.pdf",
        "start_date": "1802",
        "tourism": "museum",
        "website": "https://www.nps.gov/hagr/index.htm",
        "wheelchair": "yes",
        "wikidata": "Q1542563",
        "@geometry": "center"
      },
      "geometry": {
        "type": "Point",
        "coordinates": [
          -73.9473012,
          40.82136
        ]
      },
      "id": "way/271885447"
    },
    {
      "type": "Feature",
      "properties": {
        "@id": "way/271922197",
        "addr:city": "New York",
        "addr:country": "US",
        "addr:housenumber": "501",
        "addr:postcode": "10024",
        "addr:state": "NY",
        "addr:street": "Riverside Drive",
        "alt_name": "Grant's Tomb",
        "building": "yes",
        "ele": "38",
        "gnis:feature_id": "951524",
        "height": "46.9",
        "historic": "memorial",
        "memorial": "war_memorial",
        "name": "General Grant National Memorial",
        "name:fr": "Mémorial National du général Grant",
        "nycdoitt:bin": "1057391",
        "ref:nrhp": "66000055",
        "start_date": "1897",
        "tourism": "museum",
        "wikidata": "Q1025105",
        "wikipedia": "en:Grant's Tomb",
        "@geometry": "center"
      },
      "geometry": {
        "type": "Point",
        "coordinates": [
          -73.9630506,
          40.8134537
        ]
      },
      "id": "way/271922197"
    },
    {
      "type": "Feature",
      "properties": {
        "@id": "way/275014150",
        "addr:state": "NY",
        "building": "yes",
        "ele": "56",
        "fee": "yes",
        "gnis:feature_id": "2078986",
        "height": "12.2",
        "historic": "house",
        "name": "Morris-Jumel Mansion",
        "nycdoitt:bin": "1084189",
        "opening_hours": "Th 13:00-16:00; Fr,Sa 11:00-16:00",
        "source": "USGS Geonames",
        "tourism": "museum",
        "website": "https://www.morrisjumel.org/",
        "wheelchair": "limited",
        "wikidata": "Q1948466",
        "wikipedia": "en:Morris–Jumel Mansion",
        "@geometry": "center"
      },
      "geometry": {
        "type": "Point",
        "coordinates": [
          -73.9385796,
          40.8344678
        ]
      },
      "id": "way/275014150"
    },
    {
      "type": "Feature",
      "properties": {
        "@id": "way/278033604",
        "addr:city": "New York",
        "addr:housenumber": "180",
        "addr:postcode": "10007",
        "addr:state": "NY",
        "addr:street": "Greenwich Street",
        "air_conditioning": "yes",
        "alt_name": "9/11 Memorial Musuem",
        "building": "museum",
        "building:colour": "silver",
        "fee": "yes",
        "height": "4",
        "min_height": "0",
        "museum": "history",
        "name": "9/11 Memorial & Museum",
        "name:en": "9/11 Memorial & Museum",
        "name:he": "אנדרטה לאירוע 11 בספטמבר",
        "name:kn": "9/11 ಮೆಮೋರಿಯಲ್ ಮ್ಯೂಸೀಯಮ್",
        "name:zh": "九一一國家紀念博物館",
        "name:zh-Hans": "九幺幺国家纪念博物馆",
        "nycdoitt:bin": "1088798",
        "official_name": "National September 11 Memorial & Museum at the World Trade Center",
        "opening_hours": "Mo-Th 09:00-20:00, Fr-Sa 09:00-21:00, Su 09:00-20:00",
        "roof:colour": "silver",
        "start_date": "2014-05-14",
        "toilets:wheelchair": "yes",
        "tourism": "museum",
        "website": "https://www.911memorial.org/",
        "wheelchair": "yes",
        "wikidata": "Q1136137",
        "wikipedia": "en:National September 11 Memorial & Museum",
        "@geometry": "center"
      },
      "geometry": {
        "type": "Point",
        "coordinates": [
          -74.0127418,
          40.711456
        ]
      },
      "id": "way/278033604"
    },
    {
      "type": "Feature",
      "properties": {
        "@id": "way/278346578",
        "addr:city": "New York",
        "addr:housenumber": "11",
        "addr:postcode": "10019",
        "addr:state": "NY",
        "addr:street": "West 53rd Street",
        "alt_name": "Museum of Modern Art",
        "building": "museum",
        "building:part": "yes",
        "check_date:opening_hours": "2024-09-05",
        "ele": "19",
        "fee": "yes",
        "fee:conditional": "no @ age < 17",
        "gnis:feature_id": "958207",
        "museum": "art",
        "name": "MoMA",
        "name:es": "MoMA",
        "name:et": "New Yorgi moodsa kunsti muuseum",
        "name:fr": "MoMA",
        "name:ko": "근대 미술관",
        "name:ru": "Нью-Йоркский музей современного искусства",
        "name:uk": "Музей сучасного мистецтва",
        "name:zh": "现代艺术博物馆",
        "nycdoitt:bin": "1087646",
        "official_name": "The Museum of Modern Art",
        "opening_hours": "Mo-Su 10:30-17:30; Sa 10:30-19:00; Dec 25 off; Nov Th[4] off",
        "short_name": "MoMA",
        "start_date": "1929",
        "tourism": "museum",
        "website": "https://www.moma.org/",
        "wheelchair": "yes",
        "wikidata": "Q188740",
        "wikipedia": "en:Museum of Modern Art",
        "@geometry": "center"
      },
      "geometry": {
        "type": "Point",
        "coordinates": [
          -73.9775451,
          40.761612
        ]
      },
      "id": "way/278346578"
    },
    {
      "type": "Feature",
      "properties": {
        "@id": "way/278396320",
        "addr:housenumber": "1",
        "addr:postcode": "10004",
        "addr:street": "Barry Road",
        "building": "yes",
        "height": "9.0",
        "name": "Commanding Officer's Quarters",
        "nycdoitt:bin": "1086389",
        "tourism": "museum",
        "wikidata": "Q4683626",
        "@geometry": "center"
      },
      "geometry": {
        "type": "Point",
        "coordinates": [
          -74.0131463,
          40.6903372
        ]
      },
      "id": "way/278396320"
    },
    {
      "type": "Feature",
      "properties": {
        "@id": "way/278396356",
        "addr:housenumber": "125",
        "addr:postcode": "10004",
        "addr:street": "Carder Road",
        "building": "yes",
        "description": "Once home to the U.S. First Army, it became the headquarters for the Coast Guard’s Atlantic Area Command.",
        "height": "16.6",
        "nycdoitt:bin": "1086418",
        "tourism": "museum",
        "wheelchair": "no",
        "@geometry": "center"
      },
      "geometry": {
        "type": "Point",
        "coordinates": [
          -74.0136717,
          40.6915636
        ]
      },
      "id": "way/278396356"
    },
    {
      "type": "Feature",
      "properties": {
        "@id": "way/278396395",
        "addr:housenumber": "18",
        "addr:postcode": "10004",
        "addr:street": "Evans Road",
        "building": "yes",
        "height": "10.0",
        "nycdoitt:bin": "1086375",
        "tourism": "museum",
        "@geometry": "center"
      },
      "geometry": {
        "type": "Point",
        "coordinates": [
          -74.0146627,
          40.6896407
        ]
      },
      "id": "way/278396395"
    },
    {
      "type": "Feature",
      "properties": {
        "@id": "way/288749896",
        "addr:city": "New York",
        "addr:housenumber": "99",
        "addr:postcode": "10014",
        "addr:state": "NY",
        "addr:street": "Gansevoort Street",
        "building": "yes",
        "building:levels": "8",
        "check_date:opening_hours": "2024-09-08",
        "fee": "yes",
        "fee:conditional": "no @ Fr 17:00-22:00; no @ Su[2]; no @ age < 19",
        "museum": "art",
        "name": "Whitney Museum of American Art",
        "name:es": "Museo de Arte America Whitney",
        "name:ja": "ホイットニー美術館",
        "name:ru": "Музей американского искусства Уитни",
        "opening_hours": "Mo-Su 10:30-18:00; Tu off; Fr 10:30-22:00",
        "phone": "+1-212-570-3600",
        "short_name": "The Whitney",
        "tourism": "museum",
        "website": "https://www.whitney.org/",
        "wheelchair": "yes",
        "wikidata": "Q639791",
        "wikipedia": "en:Whitney Museum",
        "@geometry": "center"
      },
      "geometry": {
        "type": "Point",
        "coordinates": [
          -74.0089385,
          40.739633
        ]
      },
      "id": "way/288749896"
    },
    {
      "type": "Feature",
      "properties": {
        "@id": "node/368052081",
        "addr:city": "New York",
        "addr:floor": "2",
        "addr:housenumber": "54",
        "addr:postcode": "10004",
        "addr:state": "NY",
        "addr:street": "Pearl Street",
        "check_date:opening_hours": "2024-09-08",
        "contact:phone": "+1 2124251778",
        "contact:website": "https://www.frauncestavernmuseum.org/",
        "fee": "yes",
        "fee:conditional": "no @ age < 5; no @ veterans; no @ military",
        "gnis:feature_id": "2057419",
        "name": "Fraunces Tavern Museum",
        "opening_hours": "12:00-17:00",
        "phone": "+1 212-425-1778",
        "tourism": "museum",
        "website": "https://www.frauncestavernmuseum.org/",
        "wheelchair": "yes"
      },
      "geometry": {
        "type": "Point",
        "coordinates": [
          -74.011354,
          40.703387
        ]
      },
      "id": "node/368052081"
    },
    {
      "type": "Feature",
      "properties": {
        "@id": "node/368061337",
        "addr:city": "New York",
        "addr:housenumber": "1",
        "addr:postcode": "10004",
        "addr:state": "NY",
        "addr:street": "Bowling Green",
        "contact:phone": "+1 2125143700",
        "contact:website": "https://americanindian.si.edu/",
        "ele": "3",
        "fee": "no",
        "gnis:feature_id": "2057415",
        "name": "National Museum of the American Indian",
        "name:es": "Museo Nacional de Indigena",
        "opening_hours": "Mo-Su 10:00-17:00; Dec 25 off",
        "phone": "+12125143700",
        "tourism": "museum",
        "website": "https://americanindian.si.edu/",
        "wheelchair": "yes",
        "wikidata": "Q5539979"
      },
      "geometry": {
        "type": "Point",
        "coordinates": [
          -74.013747,
          40.704027
        ]
      },
      "id": "node/368061337"
    },
    {
      "type": "Feature",
      "properties": {
        "@id": "node/368061605",
        "addr:state": "NY",
        "ele": "11",
        "fee": "no",
        "gnis:feature_id": "2091590",
        "name": "Yeshiva University Museum",
        "opening_hours:url": "https://www.yumuseum.org/visit/",
        "source": "USGS Geonames",
        "tourism": "museum",
        "website": "https://www.yumuseum.org/",
        "wheelchair": "yes",
        "wikidata": "Q8052851",
        "wikipedia": "en:Yeshiva University Museum"
      },
      "geometry": {
        "type": "Point",
        "coordinates": [
          -73.9938312,
          40.737978
        ]
      },
      "id": "node/368061605"
    },
    {
      "type": "Feature",
      "properties": {
        "@id": "node/368061657",
        "addr:state": "NY",
        "ele": "10",
        "gnis:feature_id": "2080645",
        "name": "Museum of African Art",
        "source": "USGS Geonames",
        "tourism": "museum"
      },
      "geometry": {
        "type": "Point",
        "coordinates": [
          -73.9977778,
          40.725
        ]
      },
      "id": "node/368061657"
    },
    {
      "type": "Feature",
      "properties": {
        "@id": "node/368061660",
        "addr:city": "New York",
        "addr:country": "US",
        "addr:housenumber": "103",
        "addr:state": "NY",
        "addr:street": "Orchard Street",
        "alt_name": "Tenement Museum",
        "check_date:opening_hours": "2024-09-08",
        "ele": "12",
        "gnis:feature_id": "2080632",
        "name": "Lower East Side Tenement Museum",
        "opening_hours": "Mo-Su 10:00-17:30; Fr,Sa 10:00-18:00",
        "phone": "+1 212-982-8420",
        "source": "USGS Geonames",
        "tourism": "museum",
        "website": "https://www.tenement.org/",
        "wikidata": "Q901533",
        "wikipedia": "en:Lower East Side Tenement Museum"
      },
      "geometry": {
        "type": "Point",
        "coordinates": [
          -73.9900266,
          40.7187837
        ]
      },
      "id": "node/368061660"
    },
    {
      "type": "Feature",
      "properties": {
        "@id": "way/388436810",
        "addr:city": "New York",
        "addr:housenumber": "180",
        "addr:postcode": "10024",
        "addr:state": "NY",
        "addr:street": "Central Park West",
        "air_conditioning": "yes",
        "alt_name:cs": "Americké přírodopisné muzeum",
        "alt_name:es": "Museo Americano de Historia Natural",
        "building": "museum",
        "building:levels": "5",
        "description": "The American Museum of Natural History is a natural history museum on the Upper West Side of Manhattan in New York City. In Theodore Roosevelt Park, across the street from Central Park, the museum complex comprises 26 interconnected buildings.",
        "fee": "yes",
        "gnis:feature_id": "942429",
        "height": "46",
        "internet_access": "wlan",
        "internet_access:fee": "no",
        "layer": "1",
        "name": "American Museum of Natural History",
        "name:cs": "Americké přírodovědné muzeum",
        "name:en": "American Museum of Natural History",
        "name:es": "Museo Americano de Historia Natural",
        "name:fr": "Muséum américain d'histoire naturelle",
        "name:he": "המוזיאון האמריקאי לתולדות הטבע",
        "name:it": "Museo americano di storia naturale",
        "name:ja": "アメリカ自然史博物館",
        "name:ko": "미국 자연사 박물관",
        "name:nl": "Amerikaans Museum van Natuurlijke Geschiedenis",
        "name:pl": "Amerykańskie Muzeum Historii Naturalnej",
        "name:pt": "Museu Americano de História Natural",
        "name:ru": "Американский музей естественной истории",
        "name:uk": "Американський музей природознавства",
        "name:zh": "自然历史博物馆",
        "opening_hours": "Mo-Su 10:00-17:30",
        "payment:mastercard": "yes",
        "payment:visa": "yes",
        "phone": "+1 212-769-5100",
        "start_date": "1869-04-06",
        "toilets:wheelchair": "yes",
        "tourism": "museum",
        "website": "https://www.amnh.org/",
        "wheelchair": "yes",
        "wikidata": "Q217717",
        "wikipedia": "en:American Museum of Natural History",
        "@geometry": "center"
      },
      "geometry": {
        "type": "Point",
        "coordinates": [
          -73.974211,
          40.7810986
        ]
      },
      "id": "way/388436810"
    },
    {
      "type": "Feature",
      "properties": {
        "@id": "node/566445454",
        "addr:city": "New York",
        "addr:country": "US",
        "addr:housenumber": "79",
        "addr:postcode": "10002",
        "addr:state": "NY",
        "addr:street": "Essex Street",
        "check_date:opening_hours": "2024-09-05",
        "email": "info@icp.org",
        "fee": "yes",
        "fee:conditional": "no @ age < 15",
        "museum": "art",
        "name": "International Center of Photography",
        "opening_hours": "11:00-19:00; Tu off; Th 11:00-21:00",
        "tourism": "museum",
        "website": "https://www.icp.org/",
        "wheelchair": "yes",
        "wikidata": "Q636942",
        "wikipedia": "en:International Center of Photography"
      },
      "geometry": {
        "type": "Point",
        "coordinates": [
          -73.9886501,
          40.7180976
        ]
      },
      "id": "node/566445454"
    },
    {
      "type": "Feature",
      "properties": {
        "@id": "way/586476446",
        "addr:housenumber": "234",
        "addr:postcode": "10036",
        "addr:state": "NY",
        "addr:street": "West 42nd Street",
        "check_date:opening_hours": "2024-09-06",
        "fee": "yes",
        "name": "Madame Tussauds New York",
        "opening_hours": "Mo-Fr 10:00-19:00; Sa,Su 10:00-21:00",
        "tourism": "museum",
        "website": "https://www.madametussauds.com/new-york/",
        "wheelchair": "yes",
        "wikidata": "Q21903395",
        "wikipedia": "en:Madame Tussauds New York",
        "@geometry": "center"
      },
      "geometry": {
        "type": "Point",
        "coordinates": [
          -73.9884505,
          40.7562117
        ]
      },
      "id": "way/586476446"
    },
    {
      "type": "Feature",
      "properties": {
        "@id": "way/705811842",
        "addr:city": "New York",
        "addr:housenumber": "119",
        "addr:postcode": "10011",
        "addr:state": "NY",
        "addr:street": "West 23rd Street",
        "area": "yes",
        "name": "Poster House",
        "opening_hours": "We-Mo 11:00-18:00, Tu off",
        "phone": "+1 917-722-2439",
        "toilets:wheelchair": "yes",
        "tourism": "museum",
        "website": "https://posterhouse.org/",
        "wheelchair": "yes",
        "wikidata": "Q66119437",
        "@geometry": "center"
      },
      "geometry": {
        "type": "Point",
        "coordinates": [
          -73.9933334,
          40.7435904
        ]
      },
      "id": "way/705811842"
    },
    {
      "type": "Feature",
      "properties": {
        "@id": "way/888758560",
        "addr:city": "New York",
        "addr:postcode": "10004",
        "addr:state": "NY",
        "air_conditioning": "yes",
        "building": "yes",
        "check_date": "2024-02-17",
        "description": "The Statue of Liberty Museum is located on Liberty Island in New York City. The museum opened on May 16, 2019, and is focused on the creation, meaning, and history of the Statue of Liberty.",
        "fee": "no",
        "height": "0",
        "internet_access": "wlan",
        "layer": "-1",
        "location": "surface",
        "museum": "history",
        "name": "Statue of Liberty Museum",
        "name:es": "Museo de la Estatua de la Libertad",
        "name:fr": "Musée de la Statue de la Liberté",
        "operator": "The Statue of Liberty–Ellis Island Foundation",
        "operator:type": "public",
        "start_date": "2019-05-16",
        "toilets": "yes",
        "tourism": "museum",
        "website": "https://www.statueofliberty.org/statue-of-liberty/statue-of-liberty-museum/",
        "wheelchair": "yes",
        "wikidata": "Q65070822",
        "wikipedia": "en:Statue of Liberty Museum",
        "@geometry": "center"
      },
      "geometry": {
        "type": "Point",
        "coordinates": [
          -74.0463272,
          40.6908211
        ]
      },
      "id": "way/888758560"
    },
    {
      "type": "Feature",
      "properties": {
        "@id": "way/1233699772",
        "addr:housenumber": "215",
        "addr:postcode": "10013",
        "addr:street": "Centre Street",
        "email": "info@mocanyc.org",
        "fax": "+1-212-619-4720",
        "name": "Museum of Chinese in America",
        "name:zh": "美國華人博物館",
        "opening_hours": "Tu, We, Fr-Su 11:00-18:00; Th 11:00-21:00",
        "opening_hours:url": "https://www.mocanyc.org/visit/",
        "phone": "+1-855-955-6622",
        "short_name": "MOCA",
        "tourism": "museum",
        "website": "https://www.mocanyc.org",
        "wheelchair": "limited",
        "wikidata": "Q1278593",
        "@geometry": "center"
      },
      "geometry": {
        "type": "Point",
        "coordinates": [
          -73.9991571,
          40.7194554
        ]
      },
      "id": "way/1233699772"
    },
    {
      "type": "Feature",
      "properties": {
        "@id": "node/1549441335",
        "addr:city": "New York",
        "addr:country": "US",
        "addr:housenumber": "4881",
        "addr:postcode": "10034",
        "addr:state": "NY",
        "addr:street": "Broadway",
        "description": "Museum in the city's only remaining Dutch colonial farmhouse (built circa 1764) and its garden.",
        "email": "info@dyckmanfarmhouse.org",
        "name": "Dyckman Farmhouse Museum",
        "opening_hours": "Th-Sa 11:00-16:00; Su 11:00-15:00",
        "phone": "+1-212-304-9422",
        "tourism": "museum",
        "website": "https://dyckmanfarmhouse.org/",
        "wheelchair": "no",
        "wikidata": "Q2865930"
      },
      "geometry": {
        "type": "Point",
        "coordinates": [
          -73.9228859,
          40.8673822
        ]
      },
      "id": "node/1549441335"
    },
    {
      "type": "Feature",
      "properties": {
        "@id": "node/1693299134",
        "contact:phone": "+1 2129084110",
        "contact:website": "https://www.moaf.org/",
        "name": "Museum of American Finance",
        "name:ru": "Музей финансов",
        "opening_hours": "Tu-Sa 10:00-16:00",
        "phone": "(212) 908-4110",
        "tourism": "museum",
        "website": "https://www.moaf.org/",
        "wikidata": "Q5354207",
        "wikipedia": "en:Museum of American Finance"
      },
      "geometry": {
        "type": "Point",
        "coordinates": [
          -74.009196,
          40.706371
        ]
      },
      "id": "node/1693299134"
    },
    {
      "type": "Feature",
      "properties": {
        "@id": "node/1810241472",
        "addr:city": "New York",
        "addr:housenumber": "150",
        "addr:postcode": "10011",
        "addr:state": "NY",
        "addr:street": "West 17th Street",
        "check_date:opening_hours": "2024-09-06",
        "fee": "yes",
        "name": "Rubin Museum of Art",
        "note": "museum closes on October 6, 2024 and will \"transition into a global museum model\".",
        "opening_hours": "Th-Su 11:00-17:00; Fr 11:00-22:00",
        "phone": "+1-212-620-5000",
        "tourism": "museum",
        "website": "https://rubinmuseum.org/",
        "wheelchair": "yes",
        "wikidata": "Q63751",
        "wikipedia": "en:Rubin Museum of Art"
      },
      "geometry": {
        "type": "Point",
        "coordinates": [
          -73.9977377,
          40.7400959
        ]
      },
      "id": "node/1810241472"
    },
    {
      "type": "Feature",
      "properties": {
        "@id": "node/2768275469",
        "addr:city": "New York",
        "addr:housenumber": "550",
        "addr:postcode": "10032",
        "addr:state": "NY",
        "addr:street": "West 155th Street",
        "email": "cccona.center@gmail.com",
        "fee": "yes",
        "museum": "children",
        "name": "Children's Cultural Center of Native America",
        "opening_hours": "Mo-Fr 10:30-13:00",
        "operator": "Nitchen Inc.",
        "operator:type": "private_non_profit",
        "phone": "+1-917-902-6628",
        "tourism": "museum",
        "website": "https://www.cccona.org/"
      },
      "geometry": {
        "type": "Point",
        "coordinates": [
          -73.9448716,
          40.8321455
        ]
      },
      "id": "node/2768275469"
    },
    {
      "type": "Feature",
      "properties": {
        "@id": "node/2808241058",
        "addr:city": "New York",
        "addr:housenumber": "39",
        "addr:postcode": "10280",
        "addr:state": "NY",
        "addr:street": "Battery Place",
        "check_date:opening_hours": "2024-09-08",
        "contact:phone": "+1 2129681961",
        "contact:website": "https://skyscraper.org/",
        "fee": "no",
        "fee:description": "Free admission until the end of 2024 because of support.",
        "museum": "architecture",
        "name": "Skyscraper Museum",
        "opening_hours": "We-Sa 12:00-18:00",
        "tourism": "museum",
        "website": "https://skyscraper.org/",
        "wheelchair": "yes",
        "wikidata": "Q2915494",
        "wikipedia": "en:Skyscraper Museum"
      },
      "geometry": {
        "type": "Point",
        "coordinates": [
          -74.017691,
          40.70575
        ]
      },
      "id": "node/2808241058"
    },
    {
      "type": "Feature",
      "properties": {
        "@id": "node/2825233330",
        "addr:city": "New York",
        "addr:housenumber": "49",
        "addr:postcode": "10007",
        "addr:state": "NY",
        "addr:street": "Chambers Street",
        "contact:phone": "+1 3322428810",
        "contact:website": "https://www.halldeslumieres.com/",
        "email": "info@halldeslumieres.com;press@halldeslumieres.com",
        "fee": "yes",
        "museum": "art",
        "name": "Hall des Lumières",
        "name:fr": "Hall des Lumières",
        "opening_hours": "10:00-18:00; Tu off; Th-Sa 10:00-22:00",
        "tourism": "museum",
        "website": "https://www.halldeslumieres.com/"
      },
      "geometry": {
        "type": "Point",
        "coordinates": [
          -74.005072,
          40.713744
        ]
      },
      "id": "node/2825233330"
    },
    {
      "type": "Feature",
      "properties": {
        "@id": "node/2898706753",
        "addr:housenumber": "12",
        "addr:postcode": "10038",
        "addr:street": "Fulton Street",
        "check_date": "2024-01-11",
        "check_date:opening_hours": "2024-09-08",
        "contact:phone": "+1 2127488600",
        "contact:website": "https://southstreetseaportmuseum.org/",
        "fee": "no; donation",
        "name": "South Street Seaport Museum",
        "opening_hours": "We-Su 11:00-17:00",
        "phone": "+12127488600",
        "tourism": "museum",
        "website": "https://southstreetseaportmuseum.org/",
        "wheelchair": "yes",
        "wikidata": "Q16025238"
      },
      "geometry": {
        "type": "Point",
        "coordinates": [
          -74.003676,
          40.706628
        ]
      },
      "id": "node/2898706753"
    },
    {
      "type": "Feature",
      "properties": {
        "@id": "node/3224793125",
        "addr:city": "New York",
        "addr:housenumber": "2",
        "addr:state": "NY",
        "addr:street": "Lincoln Square",
        "check_date:opening_hours": "2024-09-06",
        "fee": "no",
        "gnis:feature_id": "2083275",
        "height": "102.1",
        "museum": "art",
        "name": "American Folk Art Museum",
        "nycdoitt:bin": "1028159",
        "opening_hours": "We-Su 11:30-18:00",
        "tourism": "museum",
        "website": "http://www.folkartmuseum.org",
        "wheelchair": "yes",
        "wikidata": "Q464354",
        "wikipedia": "en:American Folk Art Museum"
      },
      "geometry": {
        "type": "Point",
        "coordinates": [
          -73.9815958,
          40.7732296
        ]
      },
      "id": "node/3224793125"
    },
    {
      "type": "Feature",
      "properties": {
        "@id": "node/3623620317",
        "name": "The Museum at FIT",
        "opening_hours": "Tu-Fr 12:00-20:00; Sa 10:00-17:00",
        "operator": "The Museum at FIT",
        "tourism": "museum",
        "website": "https://www.fitnyc.edu/museum.asp"
      },
      "geometry": {
        "type": "Point",
        "coordinates": [
          -73.9941473,
          40.7466544
        ]
      },
      "id": "node/3623620317"
    },
    {
      "type": "Feature",
      "properties": {
        "@id": "node/4080363530",
        "fee": "no",
        "name": "The Trust for Governors Island",
        "tourism": "museum",
        "website": "https://www.govisland.com/about/the-trust-for-governors-island"
      },
      "geometry": {
        "type": "Point",
        "coordinates": [
          -74.0159869,
          40.6927288
        ]
      },
      "id": "node/4080363530"
    },
    {
      "type": "Feature",
      "properties": {
        "@id": "node/4224363289",
        "addr:city": "New York",
        "addr:housenumber": "233",
        "addr:postcode": "10016",
        "addr:state": "NY",
        "addr:street": "5th Avenue",
        "check_date": "2024-08-24",
        "check_date:opening_hours": "2024-09-06",
        "contact:instagram": "https://www.instagram.com/museumofsex/",
        "contact:twitter": "https://twitter.com/museumofsex",
        "email": "info@museumofsex.com",
        "fee": "yes",
        "min_age": "18",
        "museum": "history",
        "name": "Museum of Sex",
        "opening_hours": "Mo-Th,Su 13:00-22:00; Fr 13:00-00:00; Sa 12:00-00:00",
        "operator:type": "private",
        "phone": "+1 212-689-6337",
        "start_date": "2002-10-05",
        "subject": "sex",
        "toilets": "yes",
        "toilets:wheelchair": "yes",
        "tourism": "museum",
        "website": "https://www.museumofsex.com/locations/new-york-city/",
        "wheelchair": "yes",
        "wikidata": "Q1322466",
        "wikimedia_commons": "File:Museum of Sex entrance from west.jpg",
        "wikipedia": "en:Museum of Sex"
      },
      "geometry": {
        "type": "Point",
        "coordinates": [
          -73.9873576,
          40.7440374
        ]
      },
      "id": "node/4224363289"
    },
    {
      "type": "Feature",
      "properties": {
        "@id": "node/4252536496",
        "addr:city": "New York",
        "addr:housenumber": "225",
        "addr:postcode": "10010",
        "addr:state": "NY",
        "addr:street": "5th Avenue",
        "air_conditioning": "yes",
        "check_date": "2023-04-03",
        "description": "This museum highlights the role of mathematics in illuminating the patterns and structures all around us.  The Museum occasionally closes early, closes for the day, or has limited hours. Please check the Visit page for further details.",
        "email": "info@momath.org",
        "fee": "yes",
        "internet_access": "wlan",
        "internet_access:fee": "no",
        "internet_access:ssid": "MoMathGuest",
        "name": "National Museum of Mathematics",
        "opening_hours": "Mo-Su 10:00-17:00",
        "operator:type": "private",
        "payment:american_express": "yes",
        "payment:credit_cards": "yes",
        "payment:mastercard": "yes",
        "payment:visa": "yes",
        "phone": "+1-212-542-0566",
        "short_name": "MoMath",
        "toilets": "yes",
        "toilets:wheelchair": "yes",
        "tourism": "museum",
        "website": "https://momath.org/",
        "wheelchair": "yes",
        "wikidata": "Q6940939"
      },
      "geometry": {
        "type": "Point",
        "coordinates": [
          -73.9877866,
          40.7435852
        ]
      },
      "id": "node/4252536496"
    },
    {
      "type": "Feature",
      "properties": {
        "@id": "node/4332192139",
        "addr:city": "New York",
        "addr:housenumber": "151",
        "addr:state": "NY",
        "addr:street": "Mulberry Street",
        "check_date": "2024-09-08",
        "contact:phone": "212-965-9000",
        "contact:website": "https://italianamericanmuseum.org/",
        "name": "Italian American Museum",
        "note": "Opens at this new location October 2024",
        "phone": "+1 212-965-9000",
        "tourism": "museum",
        "website": "https://italianamericanmuseum.org/"
      },
      "geometry": {
        "type": "Point",
        "coordinates": [
          -73.997523,
          40.719105
        ]
      },
      "id": "node/4332192139"
    },
    {
      "type": "Feature",
      "properties": {
        "@id": "node/4462440249",
        "addr:city": "New York",
        "addr:housenumber": "225",
        "addr:postcode": "10016",
        "addr:state": "NY",
        "addr:street": "Madison Avenue",
        "check_date:opening_hours": "2024-09-06",
        "fee": "yes",
        "fee:conditional": "no @ age < 13",
        "museum": "art",
        "name": "The Morgan Library & Museum",
        "name:en": "The Morgan Library & Museum",
        "opening_hours": "Tu-Su 10:30-17:00; Fr 10:30-19:00; Mo off; Nov Th[4]; Jan 01, Dec 25 off",
        "phone": "+1-212-685-0008",
        "tourism": "museum",
        "website": "https://www.themorgan.org/",
        "wheelchair": "yes",
        "wikidata": "Q1478423",
        "wikipedia": "en:Morgan Library & Museum"
      },
      "geometry": {
        "type": "Point",
        "coordinates": [
          -73.9814652,
          40.7492685
        ]
      },
      "id": "node/4462440249"
    },
    {
      "type": "Feature",
      "properties": {
        "@id": "node/4470030189",
        "addr:housenumber": "555",
        "addr:street": "West 24th Street",
        "email": "newyork@gagosian.com",
        "name": "Gagosian",
        "opening_hours": "Tu-Sa 10:00-18:00",
        "phone": "+1-212-741-1111",
        "tourism": "museum",
        "website": "https://gagosian.com",
        "wikidata": "Q2748031",
        "wikipedia": "en:Gagosian Gallery"
      },
      "geometry": {
        "type": "Point",
        "coordinates": [
          -74.0059445,
          40.7494423
        ]
      },
      "id": "node/4470030189"
    },
    {
      "type": "Feature",
      "properties": {
        "@id": "node/4491242890",
        "addr:housenumber": "99",
        "addr:postcode": "10040",
        "addr:street": "Margaret Corbin Drive",
        "fee": "yes",
        "museum": "art",
        "name": "The Met Cloisters",
        "name:en": "The Met Cloisters",
        "opening_hours": "Th-Tu 10:00-16:30",
        "operator": "The Metropolitan Museum of Art",
        "start_date": "1938-05-10",
        "tourism": "museum",
        "website": "https://www.metmuseum.org/visit/plan-your-visit/met-cloisters",
        "wheelchair": "limited",
        "wikidata": "Q1138030",
        "wikipedia": "en:The Cloisters"
      },
      "geometry": {
        "type": "Point",
        "coordinates": [
          -73.9319228,
          40.8648684
        ]
      },
      "id": "node/4491242890"
    },
    {
      "type": "Feature",
      "properties": {
        "@id": "node/4605597194",
        "addr:postcode": "10012",
        "name": "ICP International Center of Photography Museum",
        "opening_hours": "Tu-We, Fr-Su 10:00-18:00; Th 09:00-21:00",
        "phone": "2128570000",
        "tourism": "museum",
        "website": "https://www.icp.org/facilities/museum"
      },
      "geometry": {
        "type": "Point",
        "coordinates": [
          -73.9933858,
          40.7230882
        ]
      },
      "id": "node/4605597194"
    },
    {
      "type": "Feature",
      "properties": {
        "@id": "node/4778356621",
        "addr:city": "New York",
        "addr:housenumber": "200",
        "addr:postcode": "10024",
        "addr:state": "NY",
        "addr:street": "Central Park West",
        "amenity": "planetarium",
        "fee": "yes",
        "name": "Hayden Planetarium",
        "opening_hours": "Mo-Su 10:00-17:30",
        "phone": "+1-212-769-5100",
        "toilets:wheelchair": "yes",
        "tourism": "museum",
        "website": "https://haydenplanetarium.org/",
        "wheelchair": "yes",
        "wikidata": "Q665475",
        "wikipedia": "en:Rose Center for Earth and Space"
      },
      "geometry": {
        "type": "Point",
        "coordinates": [
          -73.9733215,
          40.7813974
        ]
      },
      "id": "node/4778356621"
    },
    {
      "type": "Feature",
      "properties": {
        "@id": "node/4822836222",
        "name": "Garbage museum",
        "name:en": "Garbage museum",
        "tourism": "museum"
      },
      "geometry": {
        "type": "Point",
        "coordinates": [
          -73.9439308,
          40.7856582
        ]
      },
      "id": "node/4822836222"
    },
    {
      "type": "Feature",
      "properties": {
        "@id": "node/5166579821",
        "addr:postcode": "10014",
        "fee": "yes",
        "museum": "history",
        "name": "Ground Zero Museum Workshop",
        "opening_hours": "We-Su 11:00-15:00",
        "tourism": "museum",
        "website": "https://groundzeromuseumworkshop.org/",
        "wheelchair": "yes"
      },
      "geometry": {
        "type": "Point",
        "coordinates": [
          -74.0067195,
          40.74121
        ]
      },
      "id": "node/5166579821"
    },
    {
      "type": "Feature",
      "properties": {
        "@id": "node/5296084264",
        "addr:housenumber": "898",
        "addr:postcode": "10032",
        "addr:street": "Saint Nicholas Avenue",
        "level": "-1;0",
        "name": "Sugar Hill Children's Museum of Art and Story Telling",
        "tourism": "museum",
        "website": "https://www.sugarhillmuseum.org",
        "wheelchair": "yes"
      },
      "geometry": {
        "type": "Point",
        "coordinates": [
          -73.941171,
          40.8304543
        ]
      },
      "id": "node/5296084264"
    },
    {
      "type": "Feature",
      "properties": {
        "@id": "node/5420936939",
        "addr:housenumber": "144",
        "addr:postcode": "10027",
        "addr:street": "West 125th Street",
        "name": "The Studio Museum In Harlem",
        "tourism": "museum",
        "website": "https://studiomuseum.org/",
        "wikidata": "Q903403"
      },
      "geometry": {
        "type": "Point",
        "coordinates": [
          -73.947616,
          40.8084179
        ]
      },
      "id": "node/5420936939"
    },
    {
      "type": "Feature",
      "properties": {
        "@id": "node/5509996164",
        "addr:city": "New York",
        "addr:housenumber": "526",
        "addr:postcode": "10012",
        "addr:state": "NY",
        "addr:street": "Laguardia Place",
        "name": "The Renee and Chaim Gross Foundation",
        "opening_hours": "Th,Fr 13:00-17:00",
        "phone": "+1-212-529-4906",
        "toilets:wheelchair": "no",
        "tourism": "museum",
        "website": "https://www.rcgrossfoundation.org/",
        "wheelchair": "limited",
        "wikidata": "Q24259668"
      },
      "geometry": {
        "type": "Point",
        "coordinates": [
          -73.99882,
          40.7284684
        ]
      },
      "id": "node/5509996164"
    },
    {
      "type": "Feature",
      "properties": {
        "@id": "node/5640186350",
        "addr:housenumber": "4",
        "addr:postcode": "10013",
        "addr:street": "Cortlandt Alley",
        "contact:instagram": "https://www.instagram.com/mmuseumm",
        "contact:phone": "+1 8887638839",
        "contact:twitter": "https://www.twitter.com/mmuseumm",
        "contact:website": "https://www.mmuseumm.com/",
        "description": "tiny exhibit space in a disused elevator",
        "email": "info@mmuseumm.com",
        "fee": "no",
        "name": "Mmuseumm",
        "opening_hours": "Sa-Su 12:00-18:00 open \"Museum\" || 00:00-24:00 open \"Viewing windows\"",
        "phone": "+1 888 763 8839",
        "tourism": "museum",
        "website": "https://www.mmuseumm.com/",
        "wheelchair": "yes",
        "wikidata": "Q22329588",
        "wikipedia": "en:Mmuseumm"
      },
      "geometry": {
        "type": "Point",
        "coordinates": [
          -74.002815,
          40.717363
        ]
      },
      "id": "node/5640186350"
    },
    {
      "type": "Feature",
      "properties": {
        "@id": "node/5747425246",
        "addr:housenumber": "546",
        "addr:street": "LaGuardia Place",
        "name": "Center for Architecture",
        "tourism": "museum",
        "website": "https://www.centerforarchitecture.org/",
        "wheelchair": "limited",
        "wikidata": "Q5059504"
      },
      "geometry": {
        "type": "Point",
        "coordinates": [
          -73.9985805,
          40.72873
        ]
      },
      "id": "node/5747425246"
    },
    {
      "type": "Feature",
      "properties": {
        "@id": "node/6035120505",
        "addr:housenumber": "77",
        "addr:street": "8th Avenue",
        "check_date": "2024-05-16",
        "name": "Museum of Illusions",
        "tourism": "museum",
        "website": "https://newyork.museumofillusions.us"
      },
      "geometry": {
        "type": "Point",
        "coordinates": [
          -74.0028554,
          40.7396591
        ]
      },
      "id": "node/6035120505"
    },
    {
      "type": "Feature",
      "properties": {
        "@id": "node/6481772610",
        "addr:housenumber": "155",
        "addr:street": "Avenue C",
        "alt_name": "MoRUS",
        "contact:facebook": "morusnyc",
        "contact:instagram": "morusnyc",
        "contact:twitter": "MoRUSNYC",
        "email": "info@morusnyc.org",
        "fee": "yes",
        "level": "0",
        "name": "Museum of Reclaimed Urban Space",
        "opening_hours": "We-Su 12:00-17:00",
        "phone": "+1-646-340-8341",
        "toilets": "yes",
        "toilets:access": "permissive",
        "toilets:unisex": "yes",
        "toilets:wheelchair": "no",
        "tourism": "museum",
        "website": "https://morusnyc.org",
        "wheelchair": "no",
        "wikidata": "Q6941005"
      },
      "geometry": {
        "type": "Point",
        "coordinates": [
          -73.9778791,
          40.7257313
        ]
      },
      "id": "node/6481772610"
    },
    {
      "type": "Feature",
      "properties": {
        "@id": "node/6852303846",
        "alt_name": "American Kennel Club Museum of the Dog",
        "loc_name": "Dog Museum",
        "name": "The AKC Museum of the Dog",
        "opening_hours": "We-Su 11:00-18:00",
        "phone": "+1-212-696-8360",
        "short_name": "Museum of the Dog",
        "tourism": "museum",
        "website": "https://museumofthedog.org/"
      },
      "geometry": {
        "type": "Point",
        "coordinates": [
          -73.9775762,
          40.7506105
        ]
      },
      "id": "node/6852303846"
    },
    {
      "type": "Feature",
      "properties": {
        "@id": "node/7041713696",
        "addr:city": "New York",
        "addr:housenumber": "128",
        "addr:postcode": "10065",
        "addr:state": "NY",
        "addr:street": "East 63rd Street",
        "check_date:opening_hours": "2024-09-05",
        "contact:facebook": "https://www.facebook.com/societyillustrators/",
        "contact:instagram": "https://www.instagram.com/soi128/",
        "email": "info@societyillustrators.org",
        "fee": "yes",
        "fee:conditional": "no @ age < 11",
        "museum": "art",
        "name": "Society of Illustrators",
        "opening_hours": "We-Sa 11:00-17:00; Dec 30 off",
        "opening_hours:url": "https://societyillustrators.org/plan-your-visit/",
        "phone": "+1 212 838 2560",
        "tourism": "museum",
        "website": "https://societyillustrators.org/",
        "wheelchair": "limited",
        "wheelchair:description": "only the first floor Main Gallery is accessible without using stairs"
      },
      "geometry": {
        "type": "Point",
        "coordinates": [
          -73.966827,
          40.7648187
        ]
      },
      "id": "node/7041713696"
    },
    {
      "type": "Feature",
      "properties": {
        "@id": "node/7152625885",
        "addr:housenumber": "558",
        "addr:postcode": "10012",
        "addr:street": "Broadway",
        "name": "Museum of Ice Cream",
        "opening_hours": "Mo,We,Th 09:30-20:00; Fr,Sa 09:30-20:30; Su 09:30-20:00",
        "tourism": "museum",
        "website": "https://www.museumoficecream.com/new-york-city"
      },
      "geometry": {
        "type": "Point",
        "coordinates": [
          -73.9979181,
          40.7238576
        ]
      },
      "id": "node/7152625885"
    },
    {
      "type": "Feature",
      "properties": {
        "@id": "node/8270992264",
        "addr:city": "New York",
        "addr:housenumber": "58",
        "addr:postcode": "10027",
        "addr:state": "NY",
        "addr:street": "West 129th Street",
        "museum": "history",
        "name": "National Jazz Museum in Harlem",
        "opening_hours:covid19": "off",
        "tourism": "museum",
        "website": "https://jazzmuseuminharlem.org/",
        "wikidata": "Q6973870"
      },
      "geometry": {
        "type": "Point",
        "coordinates": [
          -73.9430899,
          40.8099499
        ]
      },
      "id": "node/8270992264"
    },
    {
      "type": "Feature",
      "properties": {
        "@id": "node/8307408828",
        "addr:city": "New York",
        "addr:housenumber": "3940",
        "addr:postcode": "10032",
        "addr:state": "NY",
        "addr:street": "Broadway",
        "name": "Malcolm X & Dr. Betty Shabazz Memorial and Educational Center",
        "tourism": "museum",
        "website": "https://theshabazzcenter.org",
        "wikidata": "Q6742732",
        "wikipedia": "en:Malcolm X and Dr. Betty Shabazz Memorial and Educational Center"
      },
      "geometry": {
        "type": "Point",
        "coordinates": [
          -73.9406753,
          40.8393577
        ]
      },
      "id": "node/8307408828"
    },
    {
      "type": "Feature",
      "properties": {
        "@id": "node/8942135848",
        "addr:city": "New York",
        "addr:housenumber": "1280",
        "addr:postcode": "10029",
        "addr:state": "NY",
        "addr:street": "5th Avenue",
        "museum": "art",
        "name": "The Africa Center",
        "opening_hours": "Su-Th 12:00-20:00",
        "tourism": "museum",
        "website": "https://www.theafricacenter.org/",
        "wikidata": "Q1954603",
        "wikipedia": "en:The Africa Center"
      },
      "geometry": {
        "type": "Point",
        "coordinates": [
          -73.9493338,
          40.7963422
        ]
      },
      "id": "node/8942135848"
    },
    {
      "type": "Feature",
      "properties": {
        "@id": "node/9007964737",
        "addr:housenumber": "47",
        "addr:street": "East 60th Street",
        "name": "Grolier Club",
        "tourism": "museum",
        "website": "https://www.grolierclub.org/"
      },
      "geometry": {
        "type": "Point",
        "coordinates": [
          -73.9698587,
          40.7640002
        ]
      },
      "id": "node/9007964737"
    },
    {
      "type": "Feature",
      "properties": {
        "@id": "node/9081050442",
        "addr:housenumber": "1130",
        "addr:postcode": "10028",
        "addr:street": "Madison Avenue",
        "tourism": "museum"
      },
      "geometry": {
        "type": "Point",
        "coordinates": [
          -73.9598759,
          40.7797055
        ]
      },
      "id": "node/9081050442"
    },
    {
      "type": "Feature",
      "properties": {
        "@id": "node/9136326361",
        "addr:city": "New York",
        "addr:housenumber": "26",
        "addr:postcode": "10013",
        "addr:state": "NY",
        "addr:street": "Wooster Street",
        "check_date:opening_hours": "2024-09-08",
        "fee": "donation",
        "lgbtq": "primary",
        "museum": "art",
        "name": "Leslie-Lohman Museum of Art",
        "opening_hours": "We 12:00-17:00; Th-Su 12:00-18:00; Jan 01 off; Jun 19 off; Jun Su[-1] off; Jul 04 off; Nov 11, Th[4] off; Dec 24-25, Dec 31 off",
        "phone": "+1 212 431 2609",
        "tourism": "museum",
        "website": "https://www.leslielohman.org/",
        "wheelchair": "yes",
        "wikidata": "Q6530976",
        "wikipedia": "en:Leslie-Lohman Museum of Art"
      },
      "geometry": {
        "type": "Point",
        "coordinates": [
          -74.0030317,
          40.7217683
        ]
      },
      "id": "node/9136326361"
    },
    {
      "type": "Feature",
      "properties": {
        "@id": "node/9505939776",
        "addr:city": "New York",
        "addr:housenumber": "290",
        "addr:postcode": "10023",
        "addr:state": "NY",
        "addr:street": "Columbus Avenue",
        "hairdresser": "barber",
        "name": "NYC Barber Shop Museum",
        "opening_hours": "Tu-Fr 10:00-19:00; Sa 10:00-18:00; Su 11:00-17:00",
        "phone": "+1-646-476-3525",
        "shop": "hairdresser",
        "tourism": "museum",
        "website": "https://www.nycbarbershopmuseum.com/"
      },
      "geometry": {
        "type": "Point",
        "coordinates": [
          -73.9781357,
          40.7786086
        ]
      },
      "id": "node/9505939776"
    },
    {
      "type": "Feature",
      "properties": {
        "@id": "node/9960173554",
        "addr:city": "New York",
        "addr:housenumber": "75",
        "addr:postcode": "10013",
        "addr:state": "NY",
        "addr:street": "Varick Street",
        "level": "0",
        "museum": "person",
        "name": "Jackie Robinson Museum",
        "opening_hours": "Th-Su 11:00-18:00; Dec 25 off",
        "phone": "(866) 454-3772",
        "tourism": "museum",
        "website": "https://www.jackierobinsonmuseum.org"
      },
      "geometry": {
        "type": "Point",
        "coordinates": [
          -74.0068809,
          40.7231769
        ]
      },
      "id": "node/9960173554"
    },
    {
      "type": "Feature",
      "properties": {
        "@id": "node/10038018687",
        "addr:city": "New York",
        "addr:housenumber": "945",
        "addr:postcode": "10021",
        "addr:state": "NY",
        "addr:street": "Madison Avenue",
        "museum": "art",
        "name": "Frick Madison",
        "opening_hours": "Th-Su 10:00-18:00",
        "tourism": "museum",
        "website": "https://www.frick.org/"
      },
      "geometry": {
        "type": "Point",
        "coordinates": [
          -73.9639898,
          40.7734755
        ]
      },
      "id": "node/10038018687"
    },
    {
      "type": "Feature",
      "properties": {
        "@id": "node/10172954431",
        "museum": "nature",
        "name": "Richard Gilder Center for Science, Education, and Innovation",
        "opening_hours": "Mo-Su 10:00-17:30; Nov 23: off; Dec 25: off",
        "start_date": "2023-05-04",
        "tourism": "museum",
        "website": "https://www.amnh.org/about/gilder-center"
      },
      "geometry": {
        "type": "Point",
        "coordinates": [
          -73.9746411,
          40.7815797
        ]
      },
      "id": "node/10172954431"
    },
    {
      "type": "Feature",
      "properties": {
        "@id": "node/10172955743",
        "fee": "yes",
        "museum": "nature",
        "name": "Rose Center for Earth and Space",
        "tourism": "museum",
        "website": "https://www.amnh.org/exhibitions/permanent/rose-center",
        "wikidata": "Q2397171"
      },
      "geometry": {
        "type": "Point",
        "coordinates": [
          -73.9731563,
          40.7816493
        ]
      },
      "id": "node/10172955743"
    },
    {
      "type": "Feature",
      "properties": {
        "@id": "node/11079626705",
        "addr:city": "New York",
        "addr:floor": "2",
        "addr:housenumber": "519",
        "addr:postcode": "10001",
        "addr:state": "NY",
        "addr:street": "West 26th Street",
        "contact:facebook": "https://www.facebook.com/natlacademy/",
        "email": "info@nationalacademy.org",
        "museum": "art",
        "name": "National Academy of Design",
        "phone": "+1-212-369-4880",
        "tourism": "museum",
        "website": "https://nationalacademy.org/"
      },
      "geometry": {
        "type": "Point",
        "coordinates": [
          -74.0035315,
          40.7502469
        ]
      },
      "id": "node/11079626705"
    },
    {
      "type": "Feature",
      "properties": {
        "@id": "node/11113367836",
        "addr:city": "New York",
        "addr:housenumber": "894",
        "addr:postcode": "10001",
        "addr:state": "NY",
        "addr:street": "6th Avenue",
        "museum": "history",
        "name": "June 4th Memorial Exhibit",
        "tourism": "museum",
        "website": "https://jinian64.org/"
      },
      "geometry": {
        "type": "Point",
        "coordinates": [
          -73.9886674,
          40.748289
        ]
      },
      "id": "node/11113367836"
    },
    {
      "type": "Feature",
      "properties": {
        "@id": "node/12181429831",
        "addr:city": "New York City",
        "addr:housenumber": "277",
        "addr:postcode": "10013",
        "addr:state": "NY",
        "addr:street": "Canal Street",
        "charge": "30 USD/adult; 26 USD/teacher, student, senior 60+; 21 USD/child 6–12, veteran",
        "fee": "yes",
        "level": "1;2",
        "museum": "art",
        "name": "Banksy Museum",
        "name:etymology:wikidata": "Q133600",
        "opening_hours": "10:00-20:00",
        "tourism": "museum",
        "website": "https://museumbanksy.com",
        "wheelchair": "yes"
      },
      "geometry": {
        "type": "Point",
        "coordinates": [
          -74.001447,
          40.7194141
        ]
      },
      "id": "node/12181429831"
    },
    {
      "type": "Feature",
      "properties": {
        "@id": "node/12188861257",
        "man_made": "monitoring_station",
        "monitoring:weather": "yes",
        "museum": "technology",
        "name": "Henry Luce Nature Observatory",
        "name:en": "Henry Luce Nature Observatory",
        "opening_hours": "Tu-Su 10:00-17:00",
        "phone": "+1 212 7720210",
        "subject": "metheorology",
        "tourism": "museum",
        "website": "https://www.centralpark.com/things-to-do/attractions/henry-luce-nature-observatory/",
        "website:alternate": "https://centralpark.org/nature-observatory/"
      },
      "geometry": {
        "type": "Point",
        "coordinates": [
          -73.9688404,
          40.7792698
        ]
      },
      "id": "node/12188861257"
    },
    {
      "type": "Feature",
      "properties": {
        "@id": "node/12193120402",
        "addr:housenumber": "21",
        "addr:postcode": "10007",
        "addr:street": "Dey Street",
        "contact:phone": "+1 2126009009",
        "contact:website": "https://mercerlabs.com/",
        "internet_access": "wlan",
        "name": "MĒRCER LABS",
        "tourism": "museum"
      },
      "geometry": {
        "type": "Point",
        "coordinates": [
          -74.010453,
          40.710759
        ]
      },
      "id": "node/12193120402"
    },
    {
      "type": "Feature",
      "properties": {
        "@id": "node/12832739401",
        "addr:city": "New York City",
        "addr:housenumber": "275",
        "addr:postcode": "10013",
        "addr:state": "NY",
        "addr:street": "Church St",
        "contact:phone": "+1 9176039715",
        "contact:website": "https://www.melafoundation.org/",
        "name": "Dream House",
        "tourism": "museum"
      },
      "geometry": {
        "type": "Point",
        "coordinates": [
          -74.004836,
          40.718496
        ]
      },
      "id": "node/12832739401"
    },
    {
      "type": "Feature",
      "properties": {
        "@id": "node/12917522000",
        "check_date": "2025-06-15",
        "name": "Museum of Broadway",
        "tourism": "museum"
      },
      "geometry": {
        "type": "Point",
        "coordinates": [
          -73.9843375,
          40.7575933
        ]
      },
      "id": "node/12917522000"
    }
  ]
}
